{"type": "FeatureCollection", "features": [{"type": "Feature", "geometry": {"type": "Point", "coordinates": [7.3449995, 47.3699971]}, "properties": {}}, {"type": "Feature", "geometry": {"type": "Point", "coordinates": [6.9229986, 46.9989991]}, "properties": {}}, {"type": "Feature", "geometry": {"type": "Point", "coordinates": [8.0340036, 47.3900041]}, "properties": {}}, {"type": "Feature", "geometry": {"type": "Point", "coordinates": [8.3833025, 46.9500031]}, "properties": {}}, {"type": "Feature", "geometry": {"type": "Point", "coordinates": [7.3539995, 46.239003]}, "properties": {}}, {"type": "Feature", "geometry": {"type": "Point", "coordinates": [9.2833025, 47.383299]}, "properties": {}}, {"type": "Feature", "geometry": {"type": "Point", "coordinates": [9.3619986, 47.4229981]}, "properties": {}}, {"type": "Feature", "geometry": {"type": "Point", "coordinates": [9.0199986, 46.1970001]}, "properties": {}}, {"type": "Feature", "geometry": {"type": "Point", "coordinates": [9.0666996, 47.050002]}, "properties": {}}, {"type": "Feature", "geometry": {"type": "Point", "coordinates": [8.6329985, 47.7060031]}, "properties": {}}, {"type": "Feature", "geometry": {"type": "Point", "coordinates": [8.6480016, 47.019996]}, "properties": {}}, {"type": "Feature", "geometry": {"type": "Point", "coordinates": [8.904888469310368, 47.55261942265613]}, "properties": {}}, {"type": "Feature", "geometry": {"type": "Point", "coordinates": [8.6380026, 46.8790021]}, "properties": {}}, {"type": "Feature", "geometry": {"type": "Point", "coordinates": [8.4870006, 47.178999]}, "properties": {}}, {"type": "Feature", "geometry": {"type": "Point", "coordinates": [-8.6509975, 40.6410031]}, "properties": {}}, {"type": "Feature", "geometry": {"type": "Point", "coordinates": [-8.8049965, 39.738996]}, "properties": {}}, {"type": "Feature", "geometry": {"type": "Point", "coordinates": [-8.8441375, 41.6962351]}, "properties": {}}, {"type": "Feature", "geometry": {"type": "Point", "coordinates": [-6.3379975, 38.912004]}, "properties": {}}, {"type": "Feature", "geometry": {"type": "Point", "coordinates": [-7.8630024, 38.0140021]}, "properties": {}}, {"type": "Feature", "geometry": {"type": "Point", "coordinates": [-7.9059956, 38.5599961]}, "properties": {}}, {"type": "Feature", "geometry": {"type": "Point", "coordinates": [-7.4230015, 39.2900041]}, "properties": {}}, {"type": "Feature", "geometry": {"type": "Point", "coordinates": [-8.6820026, 39.2310001]}, "properties": {}}, {"type": "Feature", "geometry": {"type": "Point", "coordinates": [-6.7550034, 41.807997]}, "properties": {}}, {"type": "Feature", "geometry": {"type": "Point", "coordinates": [-7.4879996, 39.8109961]}, "properties": {}}, {"type": "Feature", "geometry": {"type": "Point", "coordinates": [-7.2620005, 40.5410041]}, "properties": {}}, {"type": "Feature", "geometry": {"type": "Point", "coordinates": [-7.9100004, 40.6569961]}, "properties": {}}, {"type": "Feature", "geometry": {"type": "Point", "coordinates": [-7.7370025, 41.2939981]}, "properties": {}}, {"type": "Feature", "geometry": {"type": "Point", "coordinates": [6.5500026, 53.0000011]}, "properties": {}}, {"type": "Feature", "geometry": {"type": "Point", "coordinates": [5.9229996, 51.987996]}, "properties": {}}, {"type": "Feature", "geometry": {"type": "Point", "coordinates": [5.6770025, 50.8529971]}, "properties": {}}, {"type": "Feature", "geometry": {"type": "Point", "coordinates": [6.0969965, 52.5240001]}, "properties": {}}, {"type": "Feature", "geometry": {"type": "Point", "coordinates": [3.6099995, 51.5019962]}, "properties": {}}, {"type": "Feature", "geometry": {"type": "Point", "coordinates": [5.3166605, 51.6833371]}, "properties": {}}, {"type": "Feature", "geometry": {"type": "Point", "coordinates": [7.1499965, 46.8000001]}, "properties": {}}, {"type": "Feature", "geometry": {"type": "Point", "coordinates": [7.7370035, 47.4830011]}, "properties": {}}, {"type": "Feature", "geometry": {"type": "Point", "coordinates": [7.5369966, 47.2120021]}, "properties": {}}, {"type": "Feature", "geometry": {"type": "Point", "coordinates": [8.2430015, 46.899]}, "properties": {}}, {"type": "Feature", "geometry": {"type": "Point", "coordinates": [9.4167005, 47.3333041]}, "properties": {}}, {"type": "Feature", "geometry": {"type": "Point", "coordinates": [-8.1833333, 53.6333333]}, "properties": {}}, {"type": "Feature", "geometry": {"type": "Point", "coordinates": [7.3150026, 45.7370011]}, "properties": {}}, {"type": "Feature", "geometry": {"type": "Point", "coordinates": [6.1667016, 49.8833011]}, "properties": {}}, {"type": "Feature", "geometry": {"type": "Point", "coordinates": [6.425599376387133, 49.67975296258291]}, "properties": {}}, {"type": "Feature", "geometry": {"type": "Point", "coordinates": [-6.9666667, 54.25]}, "properties": {}}, {"type": "Feature", "geometry": {"type": "Point", "coordinates": [3.9390036, 50.4459991]}, "properties": {}}, {"type": "Feature", "geometry": {"type": "Point", "coordinates": [5.338536386219118, 50.92883816466403]}, "properties": {}}, {"type": "Feature", "geometry": {"type": "Point", "coordinates": [5.8167005, 49.6833031]}, "properties": {}}, {"type": "Feature", "geometry": {"type": "Point", "coordinates": [9.7667016, 47.5166971]}, "properties": {}}, {"type": "Feature", "geometry": {"type": "Point", "coordinates": [8.2732192, 49.9824725]}, "properties": {}}, {"type": "Feature", "geometry": {"type": "Point", "coordinates": [11.4166986, 53.6333041]}, "properties": {}}, {"type": "Feature", "geometry": {"type": "Point", "coordinates": [-3.6333547, 38.0833201]}, "properties": {}}, {"type": "Feature", "geometry": {"type": "Point", "coordinates": [-5.5700066, 42.5799707]}, "properties": {}}, {"type": "Feature", "geometry": {"type": "Point", "coordinates": [2.4500207, 41.5399567]}, "properties": {}}, {"type": "Feature", "geometry": {"type": "Point", "coordinates": [9.5000297, 46.8500202]}, "properties": {}}, {"type": "Feature", "geometry": {"type": "Point", "coordinates": [-5.6700004, 43.5300161]}, "properties": {}}, {"type": "Feature", "geometry": {"type": "Point", "coordinates": [-2.6699768, 42.8499801]}, "properties": {}}, {"type": "Feature", "geometry": {"type": "Point", "coordinates": [-1.3798815645185654, 54.903407084625925]}, "properties": {}}, {"type": "Feature", "geometry": {"type": "Point", "coordinates": [-1.3999768, 50.9000314]}, "properties": {}}, {"type": "Feature", "geometry": {"type": "Point", "coordinates": [-2.5833155, 51.4499978]}, "properties": {}}, {"type": "Feature", "geometry": {"type": "Point", "coordinates": [-1.9000497, 50.7299901]}, "properties": {}}, {"type": "Feature", "geometry": {"type": "Point", "coordinates": [-7.3000043, 54.6000122]}, "properties": {}}, {"type": "Feature", "geometry": {"type": "Point", "coordinates": [-2.9029645759748974, 53.18632509137432]}, "properties": {}}, {"type": "Feature", "geometry": {"type": "Point", "coordinates": [-3.9500021, 51.6299868]}, "properties": {}}, {"type": "Feature", "geometry": {"type": "Point", "coordinates": [-2.9299868, 54.8799951]}, "properties": {}}, {"type": "Feature", "geometry": {"type": "Point", "coordinates": [0.7199971, 51.5500175]}, "properties": {}}, {"type": "Feature", "geometry": {"type": "Point", "coordinates": [-0.9800283, 51.4699707]}, "properties": {}}, {"type": "Feature", "geometry": {"type": "Point", "coordinates": [-1.1332489, 52.6299774]}, "properties": {}}, {"type": "Feature", "geometry": {"type": "Point", "coordinates": [-1.754464650200906, 53.79167546080204]}, "properties": {}}, {"type": "Feature", "geometry": {"type": "Point", "coordinates": [-1.4999966, 53.3666767]}, "properties": {}}, {"type": "Feature", "geometry": {"type": "Point", "coordinates": [7.2500378, 47.16659]}, "properties": {}}, {"type": "Feature", "geometry": {"type": "Point", "coordinates": [-8.4213312, 41.5549945]}, "properties": {}}, {"type": "Feature", "geometry": {"type": "Point", "coordinates": [-7.4999921, 40.2833409]}, "properties": {}}, {"type": "Feature", "geometry": {"type": "Point", "coordinates": [5.5000154, 51.4299732]}, "properties": {}}, {"type": "Feature", "geometry": {"type": "Point", "coordinates": [-8.8641466, 52.7038489]}, "properties": {}}, {"type": "Feature", "geometry": {"type": "Point", "coordinates": [-7.1119279, 52.2582947]}, "properties": {}}, {"type": "Feature", "geometry": {"type": "Point", "coordinates": [-9.7166527, 52.2666921]}, "properties": {}}, {"type": "Feature", "geometry": {"type": "Point", "coordinates": [-8.1166728, 54.6500092]}, "properties": {}}, {"type": "Feature", "geometry": {"type": "Point", "coordinates": [10.9199947, 44.6500252]}, "properties": {}}, {"type": "Feature", "geometry": {"type": "Point", "coordinates": [8.2099792, 44.9299823]}, "properties": {}}, {"type": "Feature", "geometry": {"type": "Point", "coordinates": [8.61998, 45.4500023]}, "properties": {}}, {"type": "Feature", "geometry": {"type": "Point", "coordinates": [9.0800036, 45.8100061]}, "properties": {}}, {"type": "Feature", "geometry": {"type": "Point", "coordinates": [6.1166703, 45.8999748]}, "properties": {}}, {"type": "Feature", "geometry": {"type": "Point", "coordinates": [4.0666662, 46.0333258]}, "properties": {}}, {"type": "Feature", "geometry": {"type": "Point", "coordinates": [8.5300114, 52.0299882]}, "properties": {}}, {"type": "Feature", "geometry": {"type": "Point", "coordinates": [7.4500256, 51.5299671]}, "properties": {}}, {"type": "Feature", "geometry": {"type": "Point", "coordinates": [6.7500166, 51.4299732]}, "properties": {}}, {"type": "Feature", "geometry": {"type": "Point", "coordinates": [7.169991, 51.25001]}, "properties": {}}, {"type": "Feature", "geometry": {"type": "Point", "coordinates": [7.0166154, 51.4499978]}, "properties": {}}, {"type": "Feature", "geometry": {"type": "Point", "coordinates": [8.3999934, 48.9999923]}, "properties": {}}, {"type": "Feature", "geometry": {"type": "Point", "coordinates": [8.6999751, 49.4199925]}, "properties": {}}, {"type": "Feature", "geometry": {"type": "Point", "coordinates": [9.5000297, 51.3000069]}, "properties": {}}, {"type": "Feature", "geometry": {"type": "Point", "coordinates": [8.2200044, 53.1299986]}, "properties": {}}, {"type": "Feature", "geometry": {"type": "Point", "coordinates": [7.2166548, 53.3666767]}, "properties": {}}, {"type": "Feature", "geometry": {"type": "Point", "coordinates": [10.5000203, 52.2499748]}, "properties": {}}, {"type": "Feature", "geometry": {"type": "Point", "coordinates": [11.0299621, 50.9700529]}, "properties": {}}, {"type": "Feature", "geometry": {"type": "Point", "coordinates": [10.9666068, 50.2666075]}, "properties": {}}, {"type": "Feature", "geometry": {"type": "Point", "coordinates": [10.8999959, 48.3500061]}, "properties": {}}, {"type": "Feature", "geometry": {"type": "Point", "coordinates": [10.9999898, 49.4700153]}, "properties": {}}, {"type": "Feature", "geometry": {"type": "Point", "coordinates": [-2.7833033, 48.5166626]}, "properties": {}}, {"type": "Feature", "geometry": {"type": "Point", "coordinates": [0.3332765, 46.5832923]}, "properties": {}}, {"type": "Feature", "geometry": {"type": "Point", "coordinates": [-0.5300299, 47.4800075]}, "properties": {}}, {"type": "Feature", "geometry": {"type": "Point", "coordinates": [-1.5615949, 43.4732754]}, "properties": {}}, {"type": "Feature", "geometry": {"type": "Point", "coordinates": [5.4499926, 43.5199909]}, "properties": {}}, {"type": "Feature", "geometry": {"type": "Point", "coordinates": [2.8999674, 42.6999892]}, "properties": {}}, {"type": "Feature", "geometry": {"type": "Point", "coordinates": [0.0833435, 43.23329]}, "properties": {}}, {"type": "Feature", "geometry": {"type": "Point", "coordinates": [3.0800081, 45.7799821]}, "properties": {}}, {"type": "Feature", "geometry": {"type": "Point", "coordinates": [2.6666483, 48.5333024]}, "properties": {}}, {"type": "Feature", "geometry": {"type": "Point", "coordinates": [2.7833337, 50.2833248]}, "properties": {}}, {"type": "Feature", "geometry": {"type": "Point", "coordinates": [6.0300089, 47.229997]}, "properties": {}}, {"type": "Feature", "geometry": {"type": "Point", "coordinates": [3.7000219, 51.0299976]}, "properties": {}}, {"type": "Feature", "geometry": {"type": "Point", "coordinates": [5.5800105, 50.6299962]}, "properties": {}}, {"type": "Feature", "geometry": {"type": "Point", "coordinates": [-1.8699998, 39.0003443]}, "properties": {}}, {"type": "Feature", "geometry": {"type": "Point", "coordinates": [-4.0167164, 39.8670355]}, "properties": {}}, {"type": "Feature", "geometry": {"type": "Point", "coordinates": [-3.1665874, 40.6337071]}, "properties": {}}, {"type": "Feature", "geometry": {"type": "Point", "coordinates": [-3.7999854, 43.3804645]}, "properties": {}}, {"type": "Feature", "geometry": {"type": "Point", "coordinates": [-5.6700004, 40.9704049]}, "properties": {}}, {"type": "Feature", "geometry": {"type": "Point", "coordinates": [-3.6799669, 42.3503982]}, "properties": {}}, {"type": "Feature", "geometry": {"type": "Point", "coordinates": [1.2499906, 41.1203699]}, "properties": {}}, {"type": "Feature", "geometry": {"type": "Point", "coordinates": [8.2800008, 47.0504214]}, "properties": {}}, {"type": "Feature", "geometry": {"type": "Point", "coordinates": [8.9666772, 46.0003821]}, "properties": {}}, {"type": "Feature", "geometry": {"type": "Point", "coordinates": [-5.8299907, 43.3504922]}, "properties": {}}, {"type": "Feature", "geometry": {"type": "Point", "coordinates": [-8.5410914, 42.882898]}, "properties": {}}, {"type": "Feature", "geometry": {"type": "Point", "coordinates": [-6.9699728, 38.8804291]}, "properties": {}}, {"type": "Feature", "geometry": {"type": "Point", "coordinates": [-2.4299915, 42.470365]}, "properties": {}}, {"type": "Feature", "geometry": {"type": "Point", "coordinates": [-1.9799931, 43.3203906]}, "properties": {}}, {"type": "Feature", "geometry": {"type": "Point", "coordinates": [-1.2300131, 54.5803752]}, "properties": {}}, {"type": "Feature", "geometry": {"type": "Point", "coordinates": [-1.5026745279244569, 52.40074087605872]}, "properties": {}}, {"type": "Feature", "geometry": {"type": "Point", "coordinates": [-2.3500222, 51.3837486]}, "properties": {}}, {"type": "Feature", "geometry": {"type": "Point", "coordinates": [-3.5299502, 50.7004053]}, "properties": {}}, {"type": "Feature", "geometry": {"type": "Point", "coordinates": [0.1166231, 52.2003913]}, "properties": {}}, {"type": "Feature", "geometry": {"type": "Point", "coordinates": [-0.3299905, 53.7504258]}, "properties": {}}, {"type": "Feature", "geometry": {"type": "Point", "coordinates": [-6.047722990732365, 54.51034008127803]}, "properties": {}}, {"type": "Feature", "geometry": {"type": "Point", "coordinates": [-5.5500336, 50.1337215]}, "properties": {}}, {"type": "Feature", "geometry": {"type": "Point", "coordinates": [-1.0721040586041342, 53.9511680622694]}, "properties": {}}, {"type": "Feature", "geometry": {"type": "Point", "coordinates": [-3.0500053, 53.8303951]}, "properties": {}}, {"type": "Feature", "geometry": {"type": "Point", "coordinates": [-0.4299844, 54.2803935]}, "properties": {}}, {"type": "Feature", "geometry": {"type": "Point", "coordinates": [-4.1599893, 50.3853858]}, "properties": {}}, {"type": "Feature", "geometry": {"type": "Point", "coordinates": [1.1699955, 52.0703475]}, "properties": {}}, {"type": "Feature", "geometry": {"type": "Point", "coordinates": [1.3000134, 52.630365]}, "properties": {}}, {"type": "Feature", "geometry": {"type": "Point", "coordinates": [-0.1699744, 50.8303457]}, "properties": {}}, {"type": "Feature", "geometry": {"type": "Point", "coordinates": [-1.2480763373698314, 51.751827978066444]}, "properties": {}}, {"type": "Feature", "geometry": {"type": "Point", "coordinates": [-0.4200108, 51.8803591]}, "properties": {}}, {"type": "Feature", "geometry": {"type": "Point", "coordinates": [-1.0800222, 50.8003475]}, "properties": {}}, {"type": "Feature", "geometry": {"type": "Point", "coordinates": [-0.2484040303391689, 52.567187150649296]}, "properties": {}}, {"type": "Feature", "geometry": {"type": "Point", "coordinates": [-1.1657063345433347, 52.941084202004]}, "properties": {}}, {"type": "Feature", "geometry": {"type": "Point", "coordinates": [-2.1800068, 53.0003683]}, "properties": {}}, {"type": "Feature", "geometry": {"type": "Point", "coordinates": [1.3000134, 51.1337122]}, "properties": {}}, {"type": "Feature", "geometry": {"type": "Point", "coordinates": [6.6500227, 46.5304273]}, "properties": {}}, {"type": "Feature", "geometry": {"type": "Point", "coordinates": [7.590017, 47.580389]}, "properties": {}}, {"type": "Feature", "geometry": {"type": "Point", "coordinates": [-0.4836407, 38.3512199]}, "properties": {}}, {"type": "Feature", "geometry": {"type": "Point", "coordinates": [-0.0500076, 39.9704142]}, "properties": {}}, {"type": "Feature", "geometry": {"type": "Point", "coordinates": [-8.4166803, 40.2003744]}, "properties": {}}, {"type": "Feature", "geometry": {"type": "Point", "coordinates": [5.7833573, 53.2503788]}, "properties": {}}, {"type": "Feature", "geometry": {"type": "Point", "coordinates": [6.5800012, 53.2204065]}, "properties": {}}, {"type": "Feature", "geometry": {"type": "Point", "coordinates": [5.1200386, 52.1003457]}, "properties": {}}, {"type": "Feature", "geometry": {"type": "Point", "coordinates": [4.629991, 52.3804319]}, "properties": {}}, {"type": "Feature", "geometry": {"type": "Point", "coordinates": [-6.350462402562247, 53.70888678916407]}, "properties": {}}, {"type": "Feature", "geometry": {"type": "Point", "coordinates": [-6.395592071318646, 53.99979607515591]}, "properties": {}}, {"type": "Feature", "geometry": {"type": "Point", "coordinates": [-9.0488123, 53.272393]}, "properties": {}}, {"type": "Feature", "geometry": {"type": "Point", "coordinates": [-7.2522553, 52.6545496]}, "properties": {}}, {"type": "Feature", "geometry": {"type": "Point", "coordinates": [-9.5166649, 52.0504004]}, "properties": {}}, {"type": "Feature", "geometry": {"type": "Point", "coordinates": [-8.4833171, 54.267061]}, "properties": {}}, {"type": "Feature", "geometry": {"type": "Point", "coordinates": [10.3200313, 44.8104289]}, "properties": {}}, {"type": "Feature", "geometry": {"type": "Point", "coordinates": [11.6099267, 44.8504265]}, "properties": {}}, {"type": "Feature", "geometry": {"type": "Point", "coordinates": [11.3400207, 44.500422]}, "properties": {}}, {"type": "Feature", "geometry": {"type": "Point", "coordinates": [9.5150719, 40.9142849]}, "properties": {}}, {"type": "Feature", "geometry": {"type": "Point", "coordinates": [9.1039815, 39.2223979]}, "properties": {}}, {"type": "Feature", "geometry": {"type": "Point", "coordinates": [10.4000264, 43.7204696]}, "properties": {}}, {"type": "Feature", "geometry": {"type": "Point", "coordinates": [10.3022747, 43.5511337]}, "properties": {}}, {"type": "Feature", "geometry": {"type": "Point", "coordinates": [11.3499943, 43.3170317]}, "properties": {}}, {"type": "Feature", "geometry": {"type": "Point", "coordinates": [11.8749751, 43.4617257]}, "properties": {}}, {"type": "Feature", "geometry": {"type": "Point", "coordinates": [11.7999926, 42.1004134]}, "properties": {}}, {"type": "Feature", "geometry": {"type": "Point", "coordinates": [9.6699934, 45.7004004]}, "properties": {}}, {"type": "Feature", "geometry": {"type": "Point", "coordinates": [11.3600195, 46.5004291]}, "properties": {}}, {"type": "Feature", "geometry": {"type": "Point", "coordinates": [11.1199825, 46.0804289]}, "properties": {}}, {"type": "Feature", "geometry": {"type": "Point", "coordinates": [10.9900162, 45.4403904]}, "properties": {}}, {"type": "Feature", "geometry": {"type": "Point", "coordinates": [4.3800321, 45.4303911]}, "properties": {}}, {"type": "Feature", "geometry": {"type": "Point", "coordinates": [5.720002, 45.1803805]}, "properties": {}}, {"type": "Feature", "geometry": {"type": "Point", "coordinates": [7.0800223, 50.7204557]}, "properties": {}}, {"type": "Feature", "geometry": {"type": "Point", "coordinates": [7.6200411, 51.9704053]}, "properties": {}}, {"type": "Feature", "geometry": {"type": "Point", "coordinates": [6.779989, 51.2203736]}, "properties": {}}, {"type": "Feature", "geometry": {"type": "Point", "coordinates": [9.9999991, 48.4003906]}, "properties": {}}, {"type": "Feature", "geometry": {"type": "Point", "coordinates": [8.470015, 49.5003752]}, "properties": {}}, {"type": "Feature", "geometry": {"type": "Point", "coordinates": [7.8699483, 48.0004151]}, "properties": {}}, {"type": "Feature", "geometry": {"type": "Point", "coordinates": [8.650004, 50.5837199]}, "properties": {}}, {"type": "Feature", "geometry": {"type": "Point", "coordinates": [8.2500284, 50.0803915]}, "properties": {}}, {"type": "Feature", "geometry": {"type": "Point", "coordinates": [8.5799825, 53.550438]}, "properties": {}}, {"type": "Feature", "geometry": {"type": "Point", "coordinates": [8.049989, 52.280438]}, "properties": {}}, {"type": "Feature", "geometry": {"type": "Point", "coordinates": [9.7166573, 52.3669702]}, "properties": {}}, {"type": "Feature", "geometry": {"type": "Point", "coordinates": [9.920004, 51.5204328]}, "properties": {}}, {"type": "Feature", "geometry": {"type": "Point", "coordinates": [11.5800061, 50.9304429]}, "properties": {}}, {"type": "Feature", "geometry": {"type": "Point", "coordinates": [9.4333154, 54.7837478]}, "properties": {}}, {"type": "Feature", "geometry": {"type": "Point", "coordinates": [10.6699841, 53.8703927]}, "properties": {}}, {"type": "Feature", "geometry": {"type": "Point", "coordinates": [10.130017, 54.3303904]}, "properties": {}}, {"type": "Feature", "geometry": {"type": "Point", "coordinates": [7.5999906, 50.3504783]}, "properties": {}}, {"type": "Feature", "geometry": {"type": "Point", "coordinates": [6.9700032, 49.2503904]}, "properties": {}}, {"type": "Feature", "geometry": {"type": "Point", "coordinates": [11.916678, 50.3170437]}, "properties": {}}, {"type": "Feature", "geometry": {"type": "Point", "coordinates": [9.950028, 49.8004344]}, "properties": {}}, {"type": "Feature", "geometry": {"type": "Point", "coordinates": [11.4499882, 48.7704197]}, "properties": {}}, {"type": "Feature", "geometry": {"type": "Point", "coordinates": [11.6200036, 52.1304214]}, "properties": {}}, {"type": "Feature", "geometry": {"type": "Point", "coordinates": [-1.6499874, 49.6503919]}, "properties": {}}, {"type": "Feature", "geometry": {"type": "Point", "coordinates": [-0.3499893, 49.1837537]}, "properties": {}}, {"type": "Feature", "geometry": {"type": "Point", "coordinates": [-3.3665752, 47.7504045]}, "properties": {}}, {"type": "Feature", "geometry": {"type": "Point", "coordinates": [-4.4950076, 48.3904429]}, "properties": {}}, {"type": "Feature", "geometry": {"type": "Point", "coordinates": [0.2025815106620919, 48.00439087635541]}, "properties": {}}, {"type": "Feature", "geometry": {"type": "Point", "coordinates": [-1.5900169, 47.2103858]}, "properties": {}}, {"type": "Feature", "geometry": {"type": "Point", "coordinates": [0.6333357, 44.2004144]}, "properties": {}}, {"type": "Feature", "geometry": {"type": "Point", "coordinates": [8.7282938, 41.9270648]}, "properties": {}}, {"type": "Feature", "geometry": {"type": "Point", "coordinates": [9.4500069, 42.7031673]}, "properties": {}}, {"type": "Feature", "geometry": {"type": "Point", "coordinates": [5.9188216, 43.1341865]}, "properties": {}}, {"type": "Feature", "geometry": {"type": "Point", "coordinates": [3.2099743, 43.3504922]}, "properties": {}}, {"type": "Feature", "geometry": {"type": "Point", "coordinates": [3.8699857, 43.6103988]}, "properties": {}}, {"type": "Feature", "geometry": {"type": "Point", "coordinates": [4.3500081, 43.8303854]}, "properties": {}}, {"type": "Feature", "geometry": {"type": "Point", "coordinates": [3.4166801, 46.117145]}, "properties": {}}, {"type": "Feature", "geometry": {"type": "Point", "coordinates": [3.1666695, 46.9837329]}, "properties": {}}, {"type": "Feature", "geometry": {"type": "Point", "coordinates": [3.5665934, 47.8004273]}, "properties": {}}, {"type": "Feature", "geometry": {"type": "Point", "coordinates": [5.0300183, 47.3304043]}, "properties": {}}, {"type": "Feature", "geometry": {"type": "Point", "coordinates": [2.3999979, 47.0837268]}, "properties": {}}, {"type": "Feature", "geometry": {"type": "Point", "coordinates": [0.6999467, 47.3803754]}, "properties": {}}, {"type": "Feature", "geometry": {"type": "Point", "coordinates": [1.9000284, 47.9004212]}, "properties": {}}, {"type": "Feature", "geometry": {"type": "Point", "coordinates": [1.0833341, 49.9337337]}, "properties": {}}, {"type": "Feature", "geometry": {"type": "Point", "coordinates": [1.0799751, 49.4304053]}, "properties": {}}, {"type": "Feature", "geometry": {"type": "Point", "coordinates": [2.1333475, 48.8004696]}, "properties": {}}, {"type": "Feature", "geometry": {"type": "Point", "coordinates": [1.5333325, 45.1504081]}, "properties": {}}, {"type": "Feature", "geometry": {"type": "Point", "coordinates": [4.0833577, 48.3403943]}, "properties": {}}, {"type": "Feature", "geometry": {"type": "Point", "coordinates": [4.029976, 49.2503904]}, "properties": {}}, {"type": "Feature", "geometry": {"type": "Point", "coordinates": [1.8333142, 50.9504159]}, "properties": {}}, {"type": "Feature", "geometry": {"type": "Point", "coordinates": [2.300004, 49.9003766]}, "properties": {}}, {"type": "Feature", "geometry": {"type": "Point", "coordinates": [7.34998, 47.7504045]}, "properties": {}}, {"type": "Feature", "geometry": {"type": "Point", "coordinates": [6.2000244, 48.6836808]}, "properties": {}}, {"type": "Feature", "geometry": {"type": "Point", "coordinates": [6.1800256, 49.1203467]}, "properties": {}}, {"type": "Feature", "geometry": {"type": "Point", "coordinates": [3.2300248, 51.2203736]}, "properties": {}}, {"type": "Feature", "geometry": {"type": "Point", "coordinates": [4.870028, 50.4703935]}, "properties": {}}, {"type": "Feature", "geometry": {"type": "Point", "coordinates": [4.450002, 50.4203965]}, "properties": {}}, {"type": "Feature", "geometry": {"type": "Point", "coordinates": [11.4099906, 47.2804073]}, "properties": {}}, {"type": "Feature", "geometry": {"type": "Point", "coordinates": [-4.480269097598402, 54.14912168202999]}, "properties": {}}, {"type": "Feature", "geometry": {"type": "Point", "coordinates": [9.5166695, 47.1337238]}, "properties": {}}, {"type": "Feature", "geometry": {"type": "Point", "coordinates": [-8.4199876, 43.3299766]}, "properties": {}}, {"type": "Feature", "geometry": {"type": "Point", "coordinates": [-7.8699954, 42.3299601]}, "properties": {}}, {"type": "Feature", "geometry": {"type": "Point", "coordinates": [-1.6116254893345796, 54.98974205316957]}, "properties": {}}, {"type": "Feature", "geometry": {"type": "Point", "coordinates": [-2.961934009816594, 53.405068298036525]}, "properties": {}}, {"type": "Feature", "geometry": {"type": "Point", "coordinates": [-3.1675981955277295, 51.48261904913091]}, "properties": {}}, {"type": "Feature", "geometry": {"type": "Point", "coordinates": [-1.5513477114128407, 53.790016637752316]}, "properties": {}}, {"type": "Feature", "geometry": {"type": "Point", "coordinates": [-1.6499874, 42.8200078]}, "properties": {}}, {"type": "Feature", "geometry": {"type": "Point", "coordinates": [-8.90001, 38.5299595]}, "properties": {}}, {"type": "Feature", "geometry": {"type": "Point", "coordinates": [-8.6219471, 41.1519522]}, "properties": {}}, {"type": "Feature", "geometry": {"type": "Point", "coordinates": [4.4780285, 51.921915]}, "properties": {}}, {"type": "Feature", "geometry": {"type": "Point", "coordinates": [6.1300028, 49.6116604]}, "properties": {}}, {"type": "Feature", "geometry": {"type": "Point", "coordinates": [-8.465109738576434, 51.89283760162047]}, "properties": {}}, {"type": "Feature", "geometry": {"type": "Point", "coordinates": [8.5700089, 40.7300061]}, "properties": {}}, {"type": "Feature", "geometry": {"type": "Point", "coordinates": [7.6680146, 45.072333]}, "properties": {}}, {"type": "Feature", "geometry": {"type": "Point", "coordinates": [9.1999963, 48.7799799]}, "properties": {}}, {"type": "Feature", "geometry": {"type": "Point", "coordinates": [8.8000207, 53.0800016]}, "properties": {}}, {"type": "Feature", "geometry": {"type": "Point", "coordinates": [11.0799849, 49.4499907]}, "properties": {}}, {"type": "Feature", "geometry": {"type": "Point", "coordinates": [-1.670012, 48.1000214]}, "properties": {}}, {"type": "Feature", "geometry": {"type": "Point", "coordinates": [7.2630781, 43.7169636]}, "properties": {}}, {"type": "Feature", "geometry": {"type": "Point", "coordinates": [1.4479809, 43.6219048]}, "properties": {}}, {"type": "Feature", "geometry": {"type": "Point", "coordinates": [1.2499906, 45.8299791]}, "properties": {}}, {"type": "Feature", "geometry": {"type": "Point", "coordinates": [3.0780622, 50.651915]}, "properties": {}}, {"type": "Feature", "geometry": {"type": "Point", "coordinates": [7.7500073, 48.5799662]}, "properties": {}}, {"type": "Feature", "geometry": {"type": "Point", "coordinates": [4.4130712, 51.2223194]}, "properties": {}}, {"type": "Feature", "geometry": {"type": "Point", "coordinates": [-4.7500308, 41.6500016]}, "properties": {}}, {"type": "Feature", "geometry": {"type": "Point", "coordinates": [2.654246, 39.5742627]}, "properties": {}}, {"type": "Feature", "geometry": {"type": "Point", "coordinates": [-0.8899821, 41.6500016]}, "properties": {}}, {"type": "Feature", "geometry": {"type": "Point", "coordinates": [-8.6230502, 52.664704]}, "properties": {}}, {"type": "Feature", "geometry": {"type": "Point", "coordinates": [8.9300386, 44.4099882]}, "properties": {}}, {"type": "Feature", "geometry": {"type": "Point", "coordinates": [6.9480586, 50.9319495]}, "properties": {}}, {"type": "Feature", "geometry": {"type": "Point", "coordinates": [-1.1499921, 46.166651]}, "properties": {}}, {"type": "Feature", "geometry": {"type": "Point", "coordinates": [7.4069132, 43.7396457]}, "properties": {}}, {"type": "Feature", "geometry": {"type": "Point", "coordinates": [1.5265942551654812, 42.5107534941671]}, "properties": {}}, {"type": "Feature", "geometry": {"type": "Point", "coordinates": [-2.2486846671598855, 53.47531992472453]}, "properties": {}}, {"type": "Feature", "geometry": {"type": "Point", "coordinates": [-1.9219426, 52.4769198]}, "properties": {}}, {"type": "Feature", "geometry": {"type": "Point", "coordinates": [-5.928177644913072, 54.594245156841886]}, "properties": {}}, {"type": "Feature", "geometry": {"type": "Point", "coordinates": [-8.7299945, 42.2200185]}, "properties": {}}, {"type": "Feature", "geometry": {"type": "Point", "coordinates": [-2.9299868, 43.2499815]}, "properties": {}}, {"type": "Feature", "geometry": {"type": "Point", "coordinates": [4.2699613, 52.0800368]}, "properties": {}}, {"type": "Feature", "geometry": {"type": "Point", "coordinates": [7.4669755, 46.9166828]}, "properties": {}}, {"type": "Feature", "geometry": {"type": "Point", "coordinates": [11.2500004, 43.7800008]}, "properties": {}}, {"type": "Feature", "geometry": {"type": "Point", "coordinates": [-0.5969589, 44.8519589]}, "properties": {}}, {"type": "Feature", "geometry": {"type": "Point", "coordinates": [5.3730643, 43.2919249]}, "properties": {}}, {"type": "Feature", "geometry": {"type": "Point", "coordinates": [0.1049701, 49.5049744]}, "properties": {}}, {"type": "Feature", "geometry": {"type": "Point", "coordinates": [-0.4019579, 39.4869634]}, "properties": {}}, {"type": "Feature", "geometry": {"type": "Point", "coordinates": [4.8280846, 45.7719544]}, "properties": {}}, {"type": "Feature", "geometry": {"type": "Point", "coordinates": [2.1814245, 41.3852454]}, "properties": {}}, {"type": "Feature", "geometry": {"type": "Point", "coordinates": [8.5480643, 47.3819337]}, "properties": {}}, {"type": "Feature", "geometry": {"type": "Point", "coordinates": [-9.1468122, 38.7246687]}, "properties": {}}, {"type": "Feature", "geometry": {"type": "Point", "coordinates": [-6.256979517281132, 53.34673124898314]}, "properties": {}}, {"type": "Feature", "geometry": {"type": "Point", "coordinates": [9.2030631, 45.4719211]}, "properties": {}}, {"type": "Feature", "geometry": {"type": "Point", "coordinates": [8.6750154, 50.0999768]}, "properties": {}}, {"type": "Feature", "geometry": {"type": "Point", "coordinates": [9.9980533, 53.5519705]}, "properties": {}}, {"type": "Feature", "geometry": {"type": "Point", "coordinates": [11.5730476, 48.1318879]}, "properties": {}}, {"type": "Feature", "geometry": {"type": "Point", "coordinates": [4.3313707, 50.8352629]}, "properties": {}}, {"type": "Feature", "geometry": {"type": "Point", "coordinates": [-3.6852975, 40.4019721]}, "properties": {}}, {"type": "Feature", "geometry": {"type": "Point", "coordinates": [6.140028, 46.2100075]}, "properties": {}}, {"type": "Feature", "geometry": {"type": "Point", "coordinates": [4.9146943, 52.3519145]}, "properties": {}}, {"type": "Feature", "geometry": {"type": "Point", "coordinates": [-0.1186677, 51.5019406]}, "properties": {}}, {"type": "Feature", "geometry": {"type": "Point", "coordinates": [2.3529924615392135, 48.85809231626911]}, "properties": {}}]}